QIANFAN-89              
1 63175U 25046S   25295.17957463  .00000171  00000+0  24717-3 0  9996
2 63175  88.9784 325.3769 0014431 274.8461  85.1042 13.50972211 40441
QIANFAN-90              
1 63176U 25046T   25295.13423869  .00000140  00000+0  19882-3 0  9994
2 63176  88.9784 325.3540 0011367 272.9002  87.0848 13.50973675 40455
